STARLINK-4728           
1 53793U 22111W   25240.76331323  .00001835  00000+0  13339-3 0  9993
2 53793  53.2182  59.9975 0001277  84.5879 275.5259 15.08833440164565
STARLINK-4730           
1 53794U 22111X   25240.76796088 -.00000821  00000+0 -33494-4 0  9998
2 53794  53.2184  60.0251 0001038  98.4485 261.6625 15.08844681164562
STARLINK-4742           
1 53795U 22111Y   25240.81849949  .00000460  00000+0  47017-4 0  9993
2 53795  53.2182  59.6335 0001347  87.3596 272.7551 15.08840789164578
STARLINK-4721           
1 53796U 22111Z   25240.65477620  .02023867  35548-2  22157-2 0  9991
2 53796  53.1610 309.0101 0014697   0.2612 359.8428 16.09734575166133
STARLINK-4723           
1 53797U 22111AA  25240.80744975 -.00001299  00000+0 -63543-4 0  9992
2 53797  53.2180  59.5660 0001295  87.6090 272.5051 15.08843467164560
STARLINK-4712           
1 53798U 22111AB  25240.81113200  .00000026  00000+0  19731-4 0  9990
2 53798  53.2179  59.5883 0001279  95.4149 264.6989 15.08837250164565
STARLINK-4710           
1 53799U 22111AC  25240.72106739  .00000245  00000+0  33508-4 0  9991
2 53799  53.2188  50.4613 0001353  95.3289 264.7858 15.08837590164680
STARLINK-4720           
1 53800U 22111AD  25240.64281546  .00000632  00000+0  57778-4 0  9990
2 53800  53.2185  50.6890 0001398  94.0737 266.0415 15.08835726164674
STARLINK-4715           
1 53801U 22111AE  25240.75686888 -.00000180  00000+0  67490-5 0  9993
2 53801  53.2182  49.9793 0001246  89.9422 270.1713 15.08836147164698
STARLINK-4726           
1 53802U 22111AF  25240.76792694 -.00000229  00000+0  36959-5 0  9998
2 53802  53.2182  50.0470 0001243  89.0904 271.0230 15.08832694164694
STARLINK-4727           
1 53803U 22111AG  25240.71596327 -.00000504  00000+0 -13568-4 0  9996
2 53803  53.2185  35.4563 0001329  91.6385 268.4760 15.08838515164893
STARLINK-4729           
1 53804U 22111AH  25240.62765035  .00000040  00000+0  20614-4 0  9994
2 53804  53.2187  45.5951 0001256  91.9249 268.1888 15.08833602164744
STARLINK-4763           
1 53805U 22111AJ  25240.72429025 -.00000159  00000+0  80980-5 0  9997
2 53805  53.2185  35.5030 0001266  87.8759 272.2378 15.08838913164897
STARLINK-4768           
1 53806U 22111AK  25240.63129811  .00000228  00000+0  32397-4 0  9992
2 53806  53.2169  35.6378 0001371  86.4533 273.6616 15.08839498164886
STARLINK-4738           
1 53819U 22114B   25240.86728167 -.00000450  00000+0 -10214-4 0  9996
2 53819  53.2178  89.6070 0001413  94.3069 265.8084 15.08839375163725
STARLINK-4758           
1 53820U 22114C   25240.90045136  .00002117  00000+0  15111-3 0  9991
2 53820  53.2171  89.8067 0001361  98.1403 261.9744 15.08830999163727
