[{"OBJECT_NAME":"STARLINK-4728","OBJECT_ID":"2022-111W","EPOCH":"2025-08-28T18:19:10.263072","MEAN_MOTION":15.0883344,"ECCENTRICITY":0.00012775,"INCLINATION":53.2182,"RA_OF_ASC_NODE":59.9975,"ARG_OF_PERICENTER":84.5879,"MEAN_ANOMALY":275.5259,"EPHEMERIS_TYPE":0,"CLASSIFICATION_TYPE":"U","NORAD_CAT_ID":53793,"ELEMENT_SET_NO":999,"REV_AT_EPOCH":16456,"BSTAR":0.00013339124,"MEAN_MOTION_DOT":1.835e-5,"MEAN_MOTION_DDOT":0},{"OBJECT_NAME":"STARLINK-4730","OBJECT_ID":"2022-111X","EPOCH":"2025-08-28T18:25:51.820032","MEAN_MOTION":15.08844681,"ECCENTRICITY":0.00010389,"INCLINATION":53.2184,"RA_OF_ASC_NODE":60.0251,"ARG_OF_PERICENTER":98.4485,"MEAN_ANOMALY":261.6625,"EPHEMERIS_TYPE":0,"CLASSIFICATION_TYPE":"U","NORAD_CAT_ID":53794,"ELEMENT_SET_NO":999,"REV_AT_EPOCH":16456,"BSTAR":-3.3494458e-5,"MEAN_MOTION_DOT":-8.21e-6,"MEAN_MOTION_DDOT":0},{"OBJECT_NAME":"STARLINK-4742","OBJECT_ID":"2022-111Y","EPOCH":"2025-08-28T19:38:38.355936","MEAN_MOTION":15.08840789,"ECCENTRICITY":0.00013474,"INCLINATION":53.2182,"RA_OF_ASC_NODE":59.6335,"ARG_OF_PERICENTER":87.3596,"MEAN_ANOMALY":272.7551,"EPHEMERIS_TYPE":0,"CLASSIFICATION_TYPE":"U","NORAD_CAT_ID":53795,"ELEMENT_SET_NO":999,"REV_AT_EPOCH":16457,"BSTAR":4.701686e-5,"MEAN_MOTION_DOT":4.6e-6,"MEAN_MOTION_DDOT":0},{"OBJECT_NAME":"STARLINK-4721","OBJECT_ID":"2022-111Z","EPOCH":"2025-08-28T15:42:52.663680","MEAN_MOTION":16.09734575,"ECCENTRICITY":0.0014697,"INCLINATION":53.161,"RA_OF_ASC_NODE":309.0101,"ARG_OF_PERICENTER":0.2612,"MEAN_ANOMALY":359.8428,"EPHEMERIS_TYPE":0,"CLASSIFICATION_TYPE":"U","NORAD_CAT_ID":53796,"ELEMENT_SET_NO":999,"REV_AT_EPOCH":16613,"BSTAR":0.0022156859,"MEAN_MOTION_DOT":0.02023867,"MEAN_MOTION_DDOT":0.0035547943},{"OBJECT_NAME":"STARLINK-4723","OBJECT_ID":"2022-111AA","EPOCH":"2025-08-28T19:22:43.658400","MEAN_MOTION":15.08843467,"ECCENTRICITY":0.00012955,"INCLINATION":53.218,"RA_OF_ASC_NODE":59.566,"ARG_OF_PERICENTER":87.609,"MEAN_ANOMALY":272.5051,"EPHEMERIS_TYPE":0,"CLASSIFICATION_TYPE":"U","NORAD_CAT_ID":53797,"ELEMENT_SET_NO":999,"REV_AT_EPOCH":16456,"BSTAR":-6.3542535e-5,"MEAN_MOTION_DOT":-1.299e-5,"MEAN_MOTION_DDOT":0},{"OBJECT_NAME":"STARLINK-4712","OBJECT_ID":"2022-111AB","EPOCH":"2025-08-28T19:28:01.804800","MEAN_MOTION":15.0883725,"ECCENTRICITY":0.00012793,"INCLINATION":53.2179,"RA_OF_ASC_NODE":59.5883,"ARG_OF_PERICENTER":95.4149,"MEAN_ANOMALY":264.6989,"EPHEMERIS_TYPE":0,"CLASSIFICATION_TYPE":"U","NORAD_CAT_ID":53798,"ELEMENT_SET_NO":999,"REV_AT_EPOCH":16456,"BSTAR":1.9730503e-5,"MEAN_MOTION_DOT":2.6e-7,"MEAN_MOTION_DDOT":0},{"OBJECT_NAME":"STARLINK-4710","OBJECT_ID":"2022-111AC","EPOCH":"2025-08-28T17:18:20.222496","MEAN_MOTION":15.0883759,"ECCENTRICITY":0.00013533,"INCLINATION":53.2188,"RA_OF_ASC_NODE":50.4613,"ARG_OF_PERICENTER":95.3289,"MEAN_ANOMALY":264.7858,"EPHEMERIS_TYPE":0,"CLASSIFICATION_TYPE":"U","NORAD_CAT_ID":53799,"ELEMENT_SET_NO":999,"REV_AT_EPOCH":16468,"BSTAR":3.3507845e-5,"MEAN_MOTION_DOT":2.45e-6,"MEAN_MOTION_DDOT":0},{"OBJECT_NAME":"STARLINK-4720","OBJECT_ID":"2022-111AD","EPOCH":"2025-08-28T15:25:39.255744","MEAN_MOTION":15.08835726,"ECCENTRICITY":0.00013981,"INCLINATION":53.2185,"RA_OF_ASC_NODE":50.689,"ARG_OF_PERICENTER":94.0737,"MEAN_ANOMALY":266.0415,"EPHEMERIS_TYPE":0,"CLASSIFICATION_TYPE":"U","NORAD_CAT_ID":53800,"ELEMENT_SET_NO":999,"REV_AT_EPOCH":16467,"BSTAR":5.7778332e-5,"MEAN_MOTION_DOT":6.32e-6,"MEAN_MOTION_DDOT":0},{"OBJECT_NAME":"STARLINK-4715","OBJECT_ID":"2022-111AE","EPOCH":"2025-08-28T18:09:53.471232","MEAN_MOTION":15.08836147,"ECCENTRICITY":0.00012466,"INCLINATION":53.2182,"RA_OF_ASC_NODE":49.9793,"ARG_OF_PERICENTER":89.9422,"MEAN_ANOMALY":270.1713,"EPHEMERIS_TYPE":0,"CLASSIFICATION_TYPE":"U","NORAD_CAT_ID":53801,"ELEMENT_SET_NO":999,"REV_AT_EPOCH":16469,"BSTAR":6.74902e-6,"MEAN_MOTION_DOT":-1.8e-6,"MEAN_MOTION_DDOT":0},{"OBJECT_NAME":"STARLINK-4726","OBJECT_ID":"2022-111AF","EPOCH":"2025-08-28T18:25:48.887616","MEAN_MOTION":15.08832694,"ECCENTRICITY":0.00012434,"INCLINATION":53.2182,"RA_OF_ASC_NODE":50.047,"ARG_OF_PERICENTER":89.0904,"MEAN_ANOMALY":271.023,"EPHEMERIS_TYPE":0,"CLASSIFICATION_TYPE":"U","NORAD_CAT_ID":53802,"ELEMENT_SET_NO":999,"REV_AT_EPOCH":16469,"BSTAR":3.695927e-6,"MEAN_MOTION_DOT":-2.29e-6,"MEAN_MOTION_DDOT":0},{"OBJECT_NAME":"STARLINK-4727","OBJECT_ID":"2022-111AG","EPOCH":"2025-08-28T17:10:59.226528","MEAN_MOTION":15.08838515,"ECCENTRICITY":0.00013292,"INCLINATION":53.2185,"RA_OF_ASC_NODE":35.4563,"ARG_OF_PERICENTER":91.6385,"MEAN_ANOMALY":268.476,"EPHEMERIS_TYPE":0,"CLASSIFICATION_TYPE":"U","NORAD_CAT_ID":53803,"ELEMENT_SET_NO":999,"REV_AT_EPOCH":16489,"BSTAR":-1.3568177e-5,"MEAN_MOTION_DOT":-5.04e-6,"MEAN_MOTION_DDOT":0},{"OBJECT_NAME":"STARLINK-4729","OBJECT_ID":"2022-111AH","EPOCH":"2025-08-28T15:03:48.990240","MEAN_MOTION":15.08833602,"ECCENTRICITY":0.00012565,"INCLINATION":53.2187,"RA_OF_ASC_NODE":45.5951,"ARG_OF_PERICENTER":91.9249,"MEAN_ANOMALY":268.1888,"EPHEMERIS_TYPE":0,"CLASSIFICATION_TYPE":"U","NORAD_CAT_ID":53804,"ELEMENT_SET_NO":999,"REV_AT_EPOCH":16474,"BSTAR":2.0613814e-5,"MEAN_MOTION_DOT":4.0e-7,"MEAN_MOTION_DDOT":0},{"OBJECT_NAME":"STARLINK-4763","OBJECT_ID":"2022-111AJ","EPOCH":"2025-08-28T17:22:58.677600","MEAN_MOTION":15.08838913,"ECCENTRICITY":0.0001266,"INCLINATION":53.2185,"RA_OF_ASC_NODE":35.503,"ARG_OF_PERICENTER":87.8759,"MEAN_ANOMALY":272.2378,"EPHEMERIS_TYPE":0,"CLASSIFICATION_TYPE":"U","NORAD_CAT_ID":53805,"ELEMENT_SET_NO":999,"REV_AT_EPOCH":16489,"BSTAR":8.098042e-6,"MEAN_MOTION_DOT":-1.59e-6,"MEAN_MOTION_DDOT":0},{"OBJECT_NAME":"STARLINK-4768","OBJECT_ID":"2022-111AK","EPOCH":"2025-08-28T15:09:04.156704","MEAN_MOTION":15.08839498,"ECCENTRICITY":0.00013715,"INCLINATION":53.2169,"RA_OF_ASC_NODE":35.6378,"ARG_OF_PERICENTER":86.4533,"MEAN_ANOMALY":273.6616,"EPHEMERIS_TYPE":0,"CLASSIFICATION_TYPE":"U","NORAD_CAT_ID":53806,"ELEMENT_SET_NO":999,"REV_AT_EPOCH":16488,"BSTAR":3.2397367e-5,"MEAN_MOTION_DOT":2.28e-6,"MEAN_MOTION_DDOT":0},{"OBJECT_NAME":"STARLINK-4738","OBJECT_ID":"2022-114B","EPOCH":"2025-08-28T20:48:53.136288","MEAN_MOTION":15.08839375,"ECCENTRICITY":0.00014137,"INCLINATION":53.2178,"RA_OF_ASC_NODE":89.607,"ARG_OF_PERICENTER":94.3069,"MEAN_ANOMALY":265.8084,"EPHEMERIS_TYPE":0,"CLASSIFICATION_TYPE":"U","NORAD_CAT_ID":53819,"ELEMENT_SET_NO":999,"REV_AT_EPOCH":16372,"BSTAR":-1.0213982e-5,"MEAN_MOTION_DOT":-4.5e-6,"MEAN_MOTION_DDOT":0},{"OBJECT_NAME":"STARLINK-4758","OBJECT_ID":"2022-114C","EPOCH":"2025-08-28T21:36:38.997504","MEAN_MOTION":15.08830999,"ECCENTRICITY":0.00013616,"INCLINATION":53.2171,"RA_OF_ASC_NODE":89.8067,"ARG_OF_PERICENTER":98.1403,"MEAN_ANOMALY":261.9744,"EPHEMERIS_TYPE":0,"CLASSIFICATION_TYPE":"U","NORAD_CAT_ID":53820,"ELEMENT_SET_NO":999,"REV_AT_EPOCH":16372,"BSTAR":0.00015111095,"MEAN_MOTION_DOT":2.117e-5,"MEAN_MOTION_DDOT":0}]
